{"fetched_at":"2026-07-14T17:40:26.806Z","source":"https://celestrak.org/NORAD/elements/gp.php?GROUP=qianfan&FORMAT=JSON","constellation":"qianfan","records":[{"OBJECT_NAME":"QIANFAN-65","OBJECT_ID":"2025-016L","EPOCH":"2026-07-14T04:20:17.337408","CLASSIFICATION_TYPE":"U","MEAN_MOTION":13.51029872,"ECCENTRICITY":0.0016015,"INCLINATION":88.97,"RA_OF_ASC_NODE":80.8896,"ARG_OF_PERICENTER":85.3378,"MEAN_ANOMALY":274.9602,"EPHEMERIS_TYPE":0,"NORAD_CAT_ID":62795,"ELEMENT_SET_NO":999,"REV_AT_EPOCH":7606,"BSTAR":0.0001236,"MEAN_MOTION_DOT":9.2e-7,"MEAN_MOTION_DDOT":0},{"OBJECT_NAME":"QIANFAN-66","OBJECT_ID":"2025-016M","EPOCH":"2026-07-14T03:15:15.298272","CLASSIFICATION_TYPE":"U","MEAN_MOTION":13.51023098,"ECCENTRICITY":0.0017128,"INCLINATION":88.972,"RA_OF_ASC_NODE":80.9064,"ARG_OF_PERICENTER":81.7083,"MEAN_ANOMALY":278.6009,"EPHEMERIS_TYPE":0,"NORAD_CAT_ID":62796,"ELEMENT_SET_NO":999,"REV_AT_EPOCH":7610,"BSTAR":0.00015093,"MEAN_MOTION_DOT":0.0000011,"MEAN_MOTION_DDOT":0},{"OBJECT_NAME":"QIANFAN-67","OBJECT_ID":"2025-016N","EPOCH":"2026-07-14T03:21:08.517888","CLASSIFICATION_TYPE":"U","MEAN_MOTION":13.51011706,"ECCENTRICITY":0.0017069,"INCLINATION":88.971,"RA_OF_ASC_NODE":80.9105,"ARG_OF_PERICENTER":87.7032,"MEAN_ANOMALY":272.6074,"EPHEMERIS_TYPE":0,"NORAD_CAT_ID":62797,"ELEMENT_SET_NO":999,"REV_AT_EPOCH":7607,"BSTAR":0.0001181,"MEAN_MOTION_DOT":8.9e-7,"MEAN_MOTION_DDOT":0},{"OBJECT_NAME":"QIANFAN-68","OBJECT_ID":"2025-016P","EPOCH":"2026-07-14T03:09:04.136832","CLASSIFICATION_TYPE":"U","MEAN_MOTION":13.51024384,"ECCENTRICITY":0.0017155,"INCLINATION":88.9713,"RA_OF_ASC_NODE":80.9641,"ARG_OF_PERICENTER":85.8504,"MEAN_ANOMALY":274.4607,"EPHEMERIS_TYPE":0,"NORAD_CAT_ID":62798,"ELEMENT_SET_NO":999,"REV_AT_EPOCH":7605,"BSTAR":0.00011146,"MEAN_MOTION_DOT":8.4e-7,"MEAN_MOTION_DDOT":0},{"OBJECT_NAME":"QIANFAN-69","OBJECT_ID":"2025-016Q","EPOCH":"2026-07-14T01:46:05.820672","CLASSIFICATION_TYPE":"U","MEAN_MOTION":13.51018198,"ECCENTRICITY":0.0017883,"INCLINATION":88.9693,"RA_OF_ASC_NODE":80.7941,"ARG_OF_PERICENTER":87.3065,"MEAN_ANOMALY":273.0133,"EPHEMERIS_TYPE":0,"NORAD_CAT_ID":62799,"ELEMENT_SET_NO":999,"REV_AT_EPOCH":7608,"BSTAR":0.0001123,"MEAN_MOTION_DOT":8.5e-7,"MEAN_MOTION_DDOT":0},{"OBJECT_NAME":"QIANFAN-70","OBJECT_ID":"2025-016R","EPOCH":"2026-07-14T03:56:33.061920","CLASSIFICATION_TYPE":"U","MEAN_MOTION":13.51016638,"ECCENTRICITY":0.0017515,"INCLINATION":88.9713,"RA_OF_ASC_NODE":80.9678,"ARG_OF_PERICENTER":78.5862,"MEAN_ANOMALY":281.7255,"EPHEMERIS_TYPE":0,"NORAD_CAT_ID":62800,"ELEMENT_SET_NO":999,"REV_AT_EPOCH":7605,"BSTAR":0.00014476,"MEAN_MOTION_DOT":0.00000106,"MEAN_MOTION_DDOT":0},{"OBJECT_NAME":"QIANFAN-71","OBJECT_ID":"2025-016S","EPOCH":"2026-07-14T03:50:48.116832","CLASSIFICATION_TYPE":"U","MEAN_MOTION":13.51010975,"ECCENTRICITY":0.0017772,"INCLINATION":88.9707,"RA_OF_ASC_NODE":80.9348,"ARG_OF_PERICENTER":90.2637,"MEAN_ANOMALY":270.0551,"EPHEMERIS_TYPE":0,"NORAD_CAT_ID":62801,"ELEMENT_SET_NO":999,"REV_AT_EPOCH":7605,"BSTAR":0.00014326,"MEAN_MOTION_DOT":0.00000105,"MEAN_MOTION_DDOT":0},{"OBJECT_NAME":"QIANFAN-72","OBJECT_ID":"2025-016T","EPOCH":"2026-07-14T04:14:15.278208","CLASSIFICATION_TYPE":"U","MEAN_MOTION":13.51014143,"ECCENTRICITY":0.0020959,"INCLINATION":88.9697,"RA_OF_ASC_NODE":80.9256,"ARG_OF_PERICENTER":96.9789,"MEAN_ANOMALY":263.3747,"EPHEMERIS_TYPE":0,"NORAD_CAT_ID":62802,"ELEMENT_SET_NO":999,"REV_AT_EPOCH":7604,"BSTAR":0.00013925,"MEAN_MOTION_DOT":0.00000102,"MEAN_MOTION_DDOT":0},{"OBJECT_NAME":"QIANFAN-73","OBJECT_ID":"2025-046A","EPOCH":"2026-07-14T03:06:27.148896","CLASSIFICATION_TYPE":"U","MEAN_MOTION":13.51014617,"ECCENTRICITY":0.0013958,"INCLINATION":88.9723,"RA_OF_ASC_NODE":297.8842,"ARG_OF_PERICENTER":218.9035,"MEAN_ANOMALY":141.1113,"EPHEMERIS_TYPE":0,"NORAD_CAT_ID":63159,"ELEMENT_SET_NO":999,"REV_AT_EPOCH":7622,"BSTAR":0.00015271,"MEAN_MOTION_DOT":0.00000111,"MEAN_MOTION_DDOT":0},{"OBJECT_NAME":"QIANFAN-74","OBJECT_ID":"2025-046B","EPOCH":"2026-07-14T04:29:41.659008","CLASSIFICATION_TYPE":"U","MEAN_MOTION":13.5102242,"ECCENTRICITY":0.0002514,"INCLINATION":88.9723,"RA_OF_ASC_NODE":297.7679,"ARG_OF_PERICENTER":106.2263,"MEAN_ANOMALY":253.9165,"EPHEMERIS_TYPE":0,"NORAD_CAT_ID":63160,"ELEMENT_SET_NO":999,"REV_AT_EPOCH":7629,"BSTAR":0.00012648,"MEAN_MOTION_DOT":9.4e-7,"MEAN_MOTION_DDOT":0},{"OBJECT_NAME":"QIANFAN-75","OBJECT_ID":"2025-046C","EPOCH":"2026-07-14T04:11:47.751072","CLASSIFICATION_TYPE":"U","MEAN_MOTION":13.51015037,"ECCENTRICITY":0.0014932,"INCLINATION":88.9724,"RA_OF_ASC_NODE":298.0058,"ARG_OF_PERICENTER":222.6336,"MEAN_ANOMALY":137.3657,"EPHEMERIS_TYPE":0,"NORAD_CAT_ID":63161,"ELEMENT_SET_NO":999,"REV_AT_EPOCH":7616,"BSTAR":0.000151,"MEAN_MOTION_DOT":0.0000011,"MEAN_MOTION_DDOT":0},{"OBJECT_NAME":"QIANFAN-76","OBJECT_ID":"2025-046D","EPOCH":"2026-07-14T04:05:47.884704","CLASSIFICATION_TYPE":"U","MEAN_MOTION":13.5101367,"ECCENTRICITY":0.001248,"INCLINATION":88.9724,"RA_OF_ASC_NODE":297.9861,"ARG_OF_PERICENTER":221.7484,"MEAN_ANOMALY":138.2716,"EPHEMERIS_TYPE":0,"NORAD_CAT_ID":63162,"ELEMENT_SET_NO":999,"REV_AT_EPOCH":7617,"BSTAR":0.00017162,"MEAN_MOTION_DOT":0.00000123,"MEAN_MOTION_DDOT":0},{"OBJECT_NAME":"QIANFAN-77","OBJECT_ID":"2025-046E","EPOCH":"2026-07-14T04:30:19.548864","CLASSIFICATION_TYPE":"U","MEAN_MOTION":13.96221079,"ECCENTRICITY":0.0017044,"INCLINATION":88.9727,"RA_OF_ASC_NODE":294.2332,"ARG_OF_PERICENTER":130.2927,"MEAN_ANOMALY":229.9742,"EPHEMERIS_TYPE":0,"NORAD_CAT_ID":63163,"ELEMENT_SET_NO":999,"REV_AT_EPOCH":7823,"BSTAR":0.00014071,"MEAN_MOTION_DOT":0.00000207,"MEAN_MOTION_DDOT":0},{"OBJECT_NAME":"QIANFAN-78","OBJECT_ID":"2025-046F","EPOCH":"2026-07-14T03:18:27.718848","CLASSIFICATION_TYPE":"U","MEAN_MOTION":13.51009003,"ECCENTRICITY":0.0013763,"INCLINATION":88.9724,"RA_OF_ASC_NODE":297.8514,"ARG_OF_PERICENTER":224.9135,"MEAN_ANOMALY":135.0904,"EPHEMERIS_TYPE":0,"NORAD_CAT_ID":63164,"ELEMENT_SET_NO":999,"REV_AT_EPOCH":7624,"BSTAR":0.00015008,"MEAN_MOTION_DOT":0.00000109,"MEAN_MOTION_DDOT":0},{"OBJECT_NAME":"QIANFAN-79","OBJECT_ID":"2025-046G","EPOCH":"2026-07-14T03:59:53.073600","CLASSIFICATION_TYPE":"U","MEAN_MOTION":13.51019216,"ECCENTRICITY":0.0013608,"INCLINATION":88.9727,"RA_OF_ASC_NODE":297.9637,"ARG_OF_PERICENTER":223.1528,"MEAN_ANOMALY":136.8557,"EPHEMERIS_TYPE":0,"NORAD_CAT_ID":63165,"ELEMENT_SET_NO":999,"REV_AT_EPOCH":7619,"BSTAR":0.00015743,"MEAN_MOTION_DOT":0.00000114,"MEAN_MOTION_DDOT":0},{"OBJECT_NAME":"QIANFAN-80","OBJECT_ID":"2025-046H","EPOCH":"2026-07-14T02:37:03.788832","CLASSIFICATION_TYPE":"U","MEAN_MOTION":13.51016376,"ECCENTRICITY":0.0012299,"INCLINATION":88.9724,"RA_OF_ASC_NODE":297.6708,"ARG_OF_PERICENTER":227.4895,"MEAN_ANOMALY":132.5218,"EPHEMERIS_TYPE":0,"NORAD_CAT_ID":63166,"ELEMENT_SET_NO":999,"REV_AT_EPOCH":7634,"BSTAR":0.00014116,"MEAN_MOTION_DOT":0.00000103,"MEAN_MOTION_DDOT":0}]}
