QIANFAN-65              
1 62795U 25016L   26195.18075622  .00000092  00000+0  12360-3 0  9992
2 62795  88.9700  80.8896 0016015  85.3378 274.9602 13.51029872 76066
QIANFAN-66              
1 62796U 25016M   26195.13559373  .00000110  00000+0  15093-3 0  9995
2 62796  88.9720  80.9064 0017128  81.7083 278.6009 13.51023098 76107
QIANFAN-67              
1 62797U 25016N   26195.13968192  .00000089  00000+0  11810-3 0  9997
2 62797  88.9710  80.9105 0017069  87.7032 272.6074 13.51011706 76072
QIANFAN-68              
1 62798U 25016P   26195.13129788  .00000084  00000+0  11146-3 0  9995
2 62798  88.9713  80.9641 0017155  85.8504 274.4607 13.51024384 76056
QIANFAN-69              
1 62799U 25016Q   26195.07367848  .00000085  00000+0  11230-3 0  9995
2 62799  88.9693  80.7941 0017883  87.3065 273.0133 13.51018198 76080
QIANFAN-70              
1 62800U 25016R   26195.16427155  .00000106  00000+0  14476-3 0  9995
2 62800  88.9713  80.9678 0017515  78.5862 281.7255 13.51016638 76059
QIANFAN-71              
1 62801U 25016S   26195.16027913  .00000105  00000+0  14326-3 0  9997
2 62801  88.9707  80.9348 0017772  90.2637 270.0551 13.51010975 76051
QIANFAN-72              
1 62802U 25016T   26195.17656572  .00000102  00000+0  13925-3 0  9999
2 62802  88.9697  80.9256 0020959  96.9789 263.3747 13.51014143 76042
QIANFAN-73              
1 63159U 25046A   26195.12948089  .00000111  00000+0  15271-3 0  9996
2 63159  88.9723 297.8842 0013958 218.9035 141.1113 13.51014617 76225
QIANFAN-74              
1 63160U 25046B   26195.18728772  .00000094  00000+0  12648-3 0  9994
2 63160  88.9723 297.7679 0002514 106.2263 253.9165 13.51022420 76299
QIANFAN-75              
1 63161U 25046C   26195.17485823  .00000110  00000+0  15100-3 0  9996
2 63161  88.9724 298.0058 0014932 222.6336 137.3657 13.51015037 76160
QIANFAN-76              
1 63162U 25046D   26195.17069311  .00000123  00000+0  17162-3 0  9991
2 63162  88.9724 297.9861 0012480 221.7484 138.2716 13.51013670 76179
QIANFAN-77              
1 63163U 25046E   26195.18772626  .00000207  00000+0  14071-3 0  9992
2 63163  88.9727 294.2332 0017044 130.2927 229.9742 13.96221079 78232
QIANFAN-78              
1 63164U 25046F   26195.13782082  .00000109  00000+0  15008-3 0  9997
2 63164  88.9724 297.8514 0013763 224.9135 135.0904 13.51009003 76245
QIANFAN-79              
1 63165U 25046G   26195.16658650  .00000114  00000+0  15743-3 0  9996
2 63165  88.9727 297.9637 0013608 223.1528 136.8557 13.51019216 76195
QIANFAN-80              
1 63166U 25046H   26195.10907163  .00000103  00000+0  14116-3 0  9998
2 63166  88.9724 297.6708 0012299 227.4895 132.5218 13.51016376 76346
